{"type": "FeatureCollection", "features": [{"type": "Feature", "id": "HI.PVR", "properties": {"code": "PVR", "name": "PALOS VERDES RSVR", "instrumentType": "UNK", "source": "HI", "network": "HI", "commType": "UNK", "location": "", "intensity": 6.3, "intensity_flag": "", "intensity_stddev": 0.63, "pga": 14.9093, "pgv": 14.808, "distance": 52.667, "elev": null, "vs30": 313.62, "channels": [{"name": "UNK", "amplitudes": [{"name": "sa(0.3)", "value": 52.562, "units": "%g", "flag": "0", "ln_sigma": 0.0}, {"name": "pga", "value": 14.9093, "units": "%g", "flag": "0", "ln_sigma": 0.0}, {"name": "sa(1.0)", "value": 15.3661, "units": "%g", "flag": "0", "ln_sigma": 0.0}, {"name": "pgv", "value": 14.808, "units": "cm/s", "flag": "0", "ln_sigma": 0.0}, {"name": "sa(3.0)", "value": 1.407, "units": "%g", "flag": "0", "ln_sigma": 0.0}]}], "station_type": "seismic", "nresp": "null", "predictions": [{"name": "sa(0.3)", "value": 26.1156, "value_rock": 13.756, "value_soil": 34.7914, "units": "%g", "ln_tau": 0.2863, "ln_phi": 0.5628, "ln_sigma": 0.6314, "ln_sigma_rock": 0.6556, "ln_sigma_soil": 0.5801, "ln_bias": 0.1747, "ln_bias_sigma": 0.0922}, {"name": "sa(3.0)", "value": 2.5452, "value_rock": 1.0357, "value_soil": 4.4082, "units": "%g", "ln_tau": 0.3674, "ln_phi": 0.6144, "ln_sigma": 0.7159, "ln_sigma_rock": 0.7176, "ln_sigma_soil": 0.7172, "ln_bias": 0.0621, "ln_bias_sigma": 0.1191}, {"name": "pgv", "value": 9.7272, "value_rock": 5.2439, "value_soil": 13.4685, "units": "cm/s", "ln_tau": 0.3153, "ln_phi": 0.5125, "ln_sigma": 0.6017, "ln_sigma_rock": 0.6081, "ln_sigma_soil": 0.5737, "ln_bias": 0.1607, "ln_bias_sigma": 0.0911}, {"name": "sa(1.0)", "value": 10.9279, "value_rock": 4.5849, "value_soil": 17.4415, "units": "%g", "ln_tau": 0.3349, "ln_phi": 0.625, "ln_sigma": 0.709, "ln_sigma_rock": 0.7146, "ln_sigma_soil": 0.6884, "ln_bias": 0.313, "ln_bias_sigma": 0.1099}, {"name": "pga", "value": 9.8554, "value_rock": 6.9959, "value_soil": 11.4031, "units": "%g", "ln_tau": 0.3092, "ln_phi": 0.4965, "ln_sigma": 0.5849, "ln_sigma_rock": 0.6062, "ln_sigma_soil": 0.5452, "ln_bias": 0.3021, "ln_bias_sigma": 0.083}, {"name": "mmi", "value": 5.706, "value_rock": 4.8581, "value_soil": 6.1526, "units": "intensity", "tau": 0.4327, "phi": 0.9442, "sigma": 1.0387, "sigma_rock": 1.0457, "sigma_soil": 1.0083, "bias": 0.3909, "bias_sigma": 0.1403}], "mmi_from_pgm": [{"name": "sa(0.3)", "value": 7.06, "sigma": 0.82, "flag": "0"}, {"name": "sa(3.0)", "value": 4.94, "sigma": 0.89, "flag": "0"}, {"name": "pgv", "value": 6.28, "sigma": 0.63, "flag": "0"}, {"name": "sa(1.0)", "value": 6.0, "sigma": 0.75, "flag": "0"}, {"name": "pga", "value": 6.12, "sigma": 0.66, "flag": "0"}], "distance_stddev": 0.0, "distances": {"repi": 52.961, "rhypo": 56.001, "rjb": 48.623, "rjb_var": 0.0, "rrup": 52.667, "rrup_var": 0.0, "rx": 46.142, "ry0": 40.035}}, "geometry": {"type": "Point", "coordinates": [-118.32, 33.772]}}, {"type": "Feature", "id": "HI.PAR", "properties": {"code": "PAR", "name": "NONE", "instrumentType": "UNK", "source": "HI", "network": "HI", "commType": "UNK", "location": "", "intensity": 8.5, "intensity_flag": "", "intensity_stddev": 0.63, "pga": 60.7584, "pgv": 74.175, "distance": 6.295, "elev": null, "vs30": 316.0, "channels": [{"name": "UNK", "amplitudes": [{"name": "sa(0.3)", "value": 83.9346, "units": "%g", "flag": "0", "ln_sigma": 0.0}, {"name": "pga", "value": 60.7584, "units": "%g", "flag": "0", "ln_sigma": 0.0}, {"name": "sa(1.0)", "value": 147.6342, "units": "%g", "flag": "0", "ln_sigma": 0.0}, {"name": "pgv", "value": 74.175, "units": "cm/s", "flag": "0", "ln_sigma": 0.0}, {"name": "sa(3.0)", "value": 24.5815, "units": "%g", "flag": "0", "ln_sigma": 0.0}]}], "station_type": "seismic", "nresp": "null", "predictions": [{"name": "sa(0.3)", "value": 128.9855, "value_rock": 92.6122, "value_soil": 102.3041, "units": "%g", "ln_tau": 0.2451, "ln_phi": 0.5258, "ln_sigma": 0.5801, "ln_sigma_rock": 0.6548, "ln_sigma_soil": 0.4815, "ln_bias": 0.1684, "ln_bias_sigma": 0.0905}, {"name": "sa(3.0)", "value": 15.6395, "value_rock": 6.4393, "value_soil": 27.2272, "units": "%g", "ln_tau": 0.367, "ln_phi": 0.614, "ln_sigma": 0.7153, "ln_sigma_rock": 0.7175, "ln_sigma_soil": 0.7164, "ln_bias": 0.0621, "ln_bias_sigma": 0.1191}, {"name": "pgv", "value": 62.6446, "value_rock": 37.2433, "value_soil": 68.7438, "units": "cm/s", "ln_tau": 0.3086, "ln_phi": 0.5061, "ln_sigma": 0.5927, "ln_sigma_rock": 0.608, "ln_sigma_soil": 0.5462, "ln_bias": 0.1601, "ln_bias_sigma": 0.0909}, {"name": "sa(1.0)", "value": 65.0082, "value_rock": 30.1503, "value_soil": 79.1445, "units": "%g", "ln_tau": 0.3278, "ln_phi": 0.6176, "ln_sigma": 0.6992, "ln_sigma_rock": 0.7145, "ln_sigma_soil": 0.6412, "ln_bias": 0.3115, "ln_bias_sigma": 0.1096}, {"name": "pga", "value": 51.1749, "value_rock": 46.5618, "value_soil": 42.4622, "units": "%g", "ln_tau": 0.2688, "ln_phi": 0.4676, "ln_sigma": 0.5394, "ln_sigma_rock": 0.6033, "ln_sigma_soil": 0.4705, "ln_bias": 0.2952, "ln_bias_sigma": 0.082}, {"name": "mmi", "value": 8.2622, "value_rock": 7.5485, "value_soil": 8.3897, "units": "intensity", "tau": 0.4236, "phi": 0.9377, "sigma": 1.0289, "sigma_rock": 1.0456, "sigma_soil": 0.9792, "bias": 0.3891, "bias_sigma": 0.14}], "mmi_from_pgm": [{"name": "sa(0.3)", "value": 7.47, "sigma": 0.82, "flag": "0"}, {"name": "sa(3.0)", "value": 9.09, "sigma": 0.89, "flag": "0"}, {"name": "pgv", "value": 8.49, "sigma": 0.63, "flag": "0"}, {"name": "sa(1.0)", "value": 9.2, "sigma": 0.75, "flag": "0"}, {"name": "pga", "value": 7.64, "sigma": 0.66, "flag": "0"}], "distance_stddev": 0.0, "distances": {"repi": 24.999, "rhypo": 30.922, "rjb": 3.826, "rjb_var": 0.0, "rrup": 6.295, "rrup_var": 0.0, "rx": -3.545, "ry0": 1.463}}, "geometry": {"type": "Point", "coordinates": [-118.58, 34.435]}}, {"type": "Feature", "id": "HI.XBR", "properties": {"code": "XBR", "name": "BREA", "instrumentType": "UNK", "source": "HI", "network": "HI", "commType": "UNK", "location": "", "intensity": 5.3, "intensity_flag": "", "intensity_stddev": 0.63, "pga": 10.6911, "pgv": 7.2882, "distance": 65.237, "elev": null, "vs30": 262.02, "channels": [{"name": "UNK", "amplitudes": [{"name": "sa(0.3)", "value": 29.5397, "units": "%g", "flag": "0", "ln_sigma": 0.0}, {"name": "pga", "value": 10.6911, "units": "%g", "flag": "0", "ln_sigma": 0.0}, {"name": "sa(1.0)", "value": 13.6808, "units": "%g", "flag": "0", "ln_sigma": 0.0}, {"name": "pgv", "value": 7.2882, "units": "cm/s", "flag": "0", "ln_sigma": 0.0}, {"name": "sa(3.0)", "value": 1.3979, "units": "%g", "flag": "0", "ln_sigma": 0.0}]}], "station_type": "seismic", "nresp": "null", "predictions": [{"name": "sa(0.3)", "value": 22.535, "value_rock": 10.4024, "value_soil": 27.8933, "units": "%g", "ln_tau": 0.2827, "ln_phi": 0.5539, "ln_sigma": 0.6219, "ln_sigma_rock": 0.6557, "ln_sigma_soil": 0.5923, "ln_bias": 0.1743, "ln_bias_sigma": 0.0921}, {"name": "sa(3.0)", "value": 2.4272, "value_rock": 0.8282, "value_soil": 3.5268, "units": "%g", "ln_tau": 0.3674, "ln_phi": 0.6144, "ln_sigma": 0.7159, "ln_sigma_rock": 0.7177, "ln_sigma_soil": 0.7172, "ln_bias": 0.0621, "ln_bias_sigma": 0.1191}, {"name": "pgv", "value": 8.5902, "value_rock": 4.1061, "value_soil": 10.8005, "units": "cm/s", "ln_tau": 0.3138, "ln_phi": 0.5018, "ln_sigma": 0.5918, "ln_sigma_rock": 0.6081, "ln_sigma_soil": 0.5765, "ln_bias": 0.1606, "ln_bias_sigma": 0.0911}, {"name": "sa(1.0)", "value": 10.1149, "value_rock": 3.5914, "value_soil": 14.019, "units": "%g", "ln_tau": 0.3329, "ln_phi": 0.6206, "ln_sigma": 0.7043, "ln_sigma_rock": 0.7146, "ln_sigma_soil": 0.6922, "ln_bias": 0.3126, "ln_bias_sigma": 0.1098}, {"name": "pga", "value": 8.0087, "value_rock": 5.2628, "value_soil": 8.9596, "units": "%g", "ln_tau": 0.3074, "ln_phi": 0.4871, "ln_sigma": 0.576, "ln_sigma_rock": 0.6064, "ln_sigma_soil": 0.5542, "ln_bias": 0.3018, "ln_bias_sigma": 0.0829}, {"name": "mmi", "value": 5.5354, "value_rock": 4.5224, "value_soil": 5.8497, "units": "intensity", "tau": 0.4306, "phi": 0.9333, "sigma": 1.0279, "sigma_rock": 1.0457, "sigma_soil": 1.0113, "bias": 0.3905, "bias_sigma": 0.1402}], "mmi_from_pgm": [{"name": "sa(0.3)", "value": 6.08, "sigma": 0.82, "flag": "0"}, {"name": "sa(3.0)", "value": 4.88, "sigma": 0.89, "flag": "0"}, {"name": "pgv", "value": 5.31, "sigma": 0.63, "flag": "0"}, {"name": "sa(1.0)", "value": 5.81, "sigma": 0.75, "flag": "0"}, {"name": "pga", "value": 5.68, "sigma": 0.66, "flag": "0"}], "distance_stddev": 0.0, "distances": {"repi": 67.332, "rhypo": 69.748, "rjb": 64.286, "rjb_var": 0.0, "rrup": 65.237, "rrup_var": 0.0, "rx": 11.867, "ry0": 64.246}}, "geometry": {"type": "Point", "coordinates": [-117.9, 33.916]}}, {"type": "Feature", "id": "HI.BGC", "properties": {"code": "BGC", "name": "BELL GARDENS", "instrumentType": "UNK", "source": "HI", "network": "HI", "commType": "UNK", "location": "", "intensity": 5.5, "intensity_flag": "", "intensity_stddev": 0.63, "pga": 10.5729, "pgv": 8.426, "distance": 44.304, "elev": null, "vs30": 277.38, "channels": [{"name": "UNK", "amplitudes": [{"name": "sa(0.3)", "value": 20.7441, "units": "%g", "flag": "0", "ln_sigma": 0.0}, {"name": "pga", "value": 10.5729, "units": "%g", "flag": "0", "ln_sigma": 0.0}, {"name": "sa(1.0)", "value": 16.8193, "units": "%g", "flag": "0", "ln_sigma": 0.0}, {"name": "pgv", "value": 8.426, "units": "cm/s", "flag": "0", "ln_sigma": 0.0}, {"name": "sa(3.0)", "value": 2.566, "units": "%g", "flag": "0", "ln_sigma": 0.0}]}], "station_type": "seismic", "nresp": "null", "predictions": [{"name": "sa(0.3)", "value": 33.1581, "value_rock": 16.6599, "value_soil": 40.1885, "units": "%g", "ln_tau": 0.2763, "ln_phi": 0.5504, "ln_sigma": 0.6159, "ln_sigma_rock": 0.6555, "ln_sigma_soil": 0.5701, "ln_bias": 0.1734, "ln_bias_sigma": 0.0918}, {"name": "sa(3.0)", "value": 3.3873, "value_rock": 1.2228, "value_soil": 5.2026, "units": "%g", "ln_tau": 0.3674, "ln_phi": 0.6143, "ln_sigma": 0.7158, "ln_sigma_rock": 0.7176, "ln_sigma_soil": 0.7171, "ln_bias": 0.0621, "ln_bias_sigma": 0.1191}, {"name": "pgv", "value": 12.4259, "value_rock": 6.2628, "value_soil": 15.7879, "units": "cm/s", "ln_tau": 0.3129, "ln_phi": 0.5048, "ln_sigma": 0.5939, "ln_sigma_rock": 0.6081, "ln_sigma_soil": 0.5713, "ln_bias": 0.1605, "ln_bias_sigma": 0.091}, {"name": "sa(1.0)", "value": 14.3554, "value_rock": 5.457, "value_soil": 20.3452, "units": "%g", "ln_tau": 0.3319, "ln_phi": 0.6206, "ln_sigma": 0.7038, "ln_sigma_rock": 0.7146, "ln_sigma_soil": 0.6852, "ln_bias": 0.3124, "ln_bias_sigma": 0.1098}, {"name": "pga", "value": 12.1813, "value_rock": 8.484, "value_soil": 13.3544, "units": "%g", "ln_tau": 0.3014, "ln_phi": 0.4857, "ln_sigma": 0.5716, "ln_sigma_rock": 0.606, "ln_sigma_soil": 0.5379, "ln_bias": 0.301, "ln_bias_sigma": 0.0828}, {"name": "mmi", "value": 6.0421, "value_rock": 5.1018, "value_soil": 6.3707, "units": "intensity", "tau": 0.4294, "phi": 0.9364, "sigma": 1.0301, "sigma_rock": 1.0457, "sigma_soil": 1.0058, "bias": 0.3903, "bias_sigma": 0.1402}], "mmi_from_pgm": [{"name": "sa(0.3)", "value": 5.35, "sigma": 0.82, "flag": "0"}, {"name": "sa(3.0)", "value": 5.77, "sigma": 0.89, "flag": "0"}, {"name": "pgv", "value": 5.51, "sigma": 0.63, "flag": "0"}, {"name": "sa(1.0)", "value": 6.15, "sigma": 0.75, "flag": "0"}, {"name": "pga", "value": 5.49, "sigma": 0.66, "flag": "0"}], "distance_stddev": 0.0, "distances": {"repi": 44.337, "rhypo": 47.927, "rjb": 41.113, "rjb_var": 0.0, "rrup": 44.304, "rrup_var": 0.0, "rx": 20.11, "ry0": 41.073}}, "geometry": {"type": "Point", "coordinates": [-118.16, 33.965]}}, {"type": "Feature", "id": "HI.RDC", "properties": {"code": "RDC", "name": "RANCHO CUCAMONGA", "instrumentType": "UNK", "source": "HI", "network": "HI", "commType": "UNK", "location": "", "intensity": 5.0, "intensity_flag": "", "intensity_stddev": 0.63, "pga": 7.1442, "pgv": 5.8328, "distance": 79.275, "elev": null, "vs30": 603.73, "channels": [{"name": "UNK", "amplitudes": [{"name": "sa(0.3)", "value": 19.2266, "units": "%g", "flag": "0", "ln_sigma": 0.0}, {"name": "pga", "value": 7.1442, "units": "%g", "flag": "0", "ln_sigma": 0.0}, {"name": "sa(1.0)", "value": 4.7511, "units": "%g", "flag": "0", "ln_sigma": 0.0}, {"name": "pgv", "value": 5.8328, "units": "cm/s", "flag": "0", "ln_sigma": 0.0}, {"name": "sa(3.0)", "value": 0.6519, "units": "%g", "flag": "0", "ln_sigma": 0.0}]}], "station_type": "seismic", "nresp": "null", "predictions": [{"name": "sa(0.3)", "value": 9.8672, "value_rock": 8.1527, "value_soil": 22.7791, "units": "%g", "ln_tau": 0.3031, "ln_phi": 0.5788, "ln_sigma": 0.6533, "ln_sigma_rock": 0.6557, "ln_sigma_soil": 0.6018, "ln_bias": 0.1767, "ln_bias_sigma": 0.0927}, {"name": "sa(3.0)", "value": 0.8726, "value_rock": 0.6857, "value_soil": 2.9209, "units": "%g", "ln_tau": 0.3676, "ln_phi": 0.6146, "ln_sigma": 0.7162, "ln_sigma_rock": 0.7177, "ln_sigma_soil": 0.7173, "ln_bias": 0.0621, "ln_bias_sigma": 0.1191}, {"name": "pgv", "value": 3.9546, "value_rock": 3.3349, "value_soil": 8.9179, "units": "cm/s", "ln_tau": 0.3189, "ln_phi": 0.5161, "ln_sigma": 0.6067, "ln_sigma_rock": 0.6082, "ln_sigma_soil": 0.5786, "ln_bias": 0.161, "ln_bias_sigma": 0.0912}, {"name": "sa(1.0)", "value": 3.7109, "value_rock": 2.9238, "value_soil": 11.618, "units": "%g", "ln_tau": 0.3383, "ln_phi": 0.6285, "ln_sigma": 0.7137, "ln_sigma_rock": 0.7146, "ln_sigma_soil": 0.6951, "ln_bias": 0.3137, "ln_bias_sigma": 0.11}, {"name": "pga", "value": 4.5477, "value_rock": 4.0997, "value_soil": 7.1982, "units": "%g", "ln_tau": 0.3241, "ln_phi": 0.5088, "ln_sigma": 0.6032, "ln_sigma_rock": 0.6066, "ln_sigma_soil": 0.5611, "ln_bias": 0.3041, "ln_bias_sigma": 0.0832}, {"name": "mmi", "value": 4.4708, "value_rock": 4.2429, "value_soil": 5.5868, "units": "intensity", "tau": 0.4377, "phi": 0.9479, "sigma": 1.0441, "sigma_rock": 0.74, "sigma_soil": 1.0136, "bias": 0.3918, "bias_sigma": 0.1405}], "mmi_from_pgm": [{"name": "sa(0.3)", "value": 5.36, "sigma": 0.82, "flag": "0"}, {"name": "sa(3.0)", "value": 4.17, "sigma": 0.89, "flag": "0"}, {"name": "pgv", "value": 5.0, "sigma": 0.63, "flag": "0"}, {"name": "sa(1.0)", "value": 4.43, "sigma": 0.75, "flag": "0"}, {"name": "pga", "value": 5.12, "sigma": 0.66, "flag": "0"}], "distance_stddev": 0.0, "distances": {"repi": 88.158, "rhypo": 90.017, "rjb": 79.148, "rjb_var": 0.0, "rrup": 79.275, "rrup_var": 0.0, "rx": -27.708, "ry0": 73.969}}, "geometry": {"type": "Point", "coordinates": [-117.58, 34.169]}}, {"type": "Feature", "id": "HI.NIH", "properties": {"code": "NIH", "name": "NORWALK", "instrumentType": "UNK", "source": "HI", "network": "HI", "commType": "UNK", "location": "", "intensity": 6.4, "intensity_flag": "", "intensity_stddev": 0.63, "pga": 13.3772, "pgv": 16.316, "distance": 53.357, "elev": null, "vs30": 311.23, "channels": [{"name": "UNK", "amplitudes": [{"name": "sa(0.3)", "value": 26.7485, "units": "%g", "flag": "0", "ln_sigma": 0.0}, {"name": "pga", "value": 13.3772, "units": "%g", "flag": "0", "ln_sigma": 0.0}, {"name": "sa(1.0)", "value": 30.3804, "units": "%g", "flag": "0", "ln_sigma": 0.0}, {"name": "pgv", "value": 16.316, "units": "cm/s", "flag": "0", "ln_sigma": 0.0}, {"name": "sa(3.0)", "value": 3.4797, "units": "%g", "flag": "0", "ln_sigma": 0.0}]}], "station_type": "seismic", "nresp": "null", "predictions": [{"name": "sa(0.3)", "value": 25.5617, "value_rock": 13.3698, "value_soil": 34.0421, "units": "%g", "ln_tau": 0.2863, "ln_phi": 0.5628, "ln_sigma": 0.6314, "ln_sigma_rock": 0.6556, "ln_sigma_soil": 0.5812, "ln_bias": 0.1747, "ln_bias_sigma": 0.0922}, {"name": "sa(3.0)", "value": 2.5115, "value_rock": 1.0143, "value_soil": 4.3175, "units": "%g", "ln_tau": 0.3674, "ln_phi": 0.6144, "ln_sigma": 0.7159, "ln_sigma_rock": 0.7176, "ln_sigma_soil": 0.7172, "ln_bias": 0.0621, "ln_bias_sigma": 0.1191}, {"name": "pgv", "value": 9.5549, "value_rock": 5.1219, "value_soil": 13.1942, "units": "cm/s", "ln_tau": 0.3153, "ln_phi": 0.5125, "ln_sigma": 0.6017, "ln_sigma_rock": 0.6081, "ln_sigma_soil": 0.5739, "ln_bias": 0.1607, "ln_bias_sigma": 0.0911}, {"name": "sa(1.0)", "value": 10.7446, "value_rock": 4.4734, "value_soil": 17.0728, "units": "%g", "ln_tau": 0.3348, "ln_phi": 0.6249, "ln_sigma": 0.709, "ln_sigma_rock": 0.7146, "ln_sigma_soil": 0.6888, "ln_bias": 0.313, "ln_bias_sigma": 0.1099}, {"name": "pga", "value": 9.6127, "value_rock": 6.7939, "value_soil": 11.1291, "units": "%g", "ln_tau": 0.3092, "ln_phi": 0.4966, "ln_sigma": 0.585, "ln_sigma_rock": 0.6062, "ln_sigma_soil": 0.546, "ln_bias": 0.3021, "ln_bias_sigma": 0.083}, {"name": "mmi", "value": 5.6815, "value_rock": 4.8258, "value_soil": 6.1244, "units": "intensity", "tau": 0.4327, "phi": 0.9442, "sigma": 1.0386, "sigma_rock": 1.0457, "sigma_soil": 1.0086, "bias": 0.3909, "bias_sigma": 0.1403}], "mmi_from_pgm": [{"name": "sa(0.3)", "value": 5.85, "sigma": 0.82, "flag": "0"}, {"name": "sa(3.0)", "value": 6.12, "sigma": 0.89, "flag": "0"}, {"name": "pgv", "value": 6.42, "sigma": 0.63, "flag": "0"}, {"name": "sa(1.0)", "value": 6.86, "sigma": 0.75, "flag": "0"}, {"name": "pga", "value": 5.95, "sigma": 0.66, "flag": "0"}], "distance_stddev": 0.0, "distances": {"repi": 53.962, "rhypo": 56.948, "rjb": 50.799, "rjb_var": 0.0, "rrup": 53.357, "rrup_var": 0.0, "rx": 19.898, "ry0": 50.764}}, "geometry": {"type": "Point", "coordinates": [-118.07, 33.92]}}, {"type": "Feature", "id": "HI.12A", "properties": {"code": "12A", "name": "ELIZABETH LAKE", "instrumentType": "UNK", "source": "HI", "network": "HI", "commType": "UNK", "location": "", "intensity": 5.9, "intensity_flag": "", "intensity_stddev": 0.63, "pga": 25.7635, "pgv": 11.568, "distance": 19.66, "elev": null, "vs30": 511.91, "channels": [{"name": "UNK", "amplitudes": [{"name": "sa(0.3)", "value": 39.1546, "units": "%g", "flag": "0", "ln_sigma": 0.0}, {"name": "pga", "value": 25.7635, "units": "%g", "flag": "0", "ln_sigma": 0.0}, {"name": "sa(1.0)", "value": 7.9478, "units": "%g", "flag": "0", "ln_sigma": 0.0}, {"name": "pgv", "value": 11.568, "units": "cm/s", "flag": "0", "ln_sigma": 0.0}, {"name": "sa(3.0)", "value": 3.0082, "units": "%g", "flag": "0", "ln_sigma": 0.0}]}], "station_type": "seismic", "nresp": "null", "predictions": [{"name": "sa(0.3)", "value": 49.7721, "value_rock": 36.9603, "value_soil": 67.4908, "units": "%g", "ln_tau": 0.2978, "ln_phi": 0.5734, "ln_sigma": 0.6461, "ln_sigma_rock": 0.6552, "ln_sigma_soil": 0.5224, "ln_bias": 0.1761, "ln_bias_sigma": 0.0925}, {"name": "sa(3.0)", "value": 3.9761, "value_rock": 2.6242, "value_soil": 11.1398, "units": "%g", "ln_tau": 0.3674, "ln_phi": 0.6144, "ln_sigma": 0.7159, "ln_sigma_rock": 0.7176, "ln_sigma_soil": 0.7168, "ln_bias": 0.0621, "ln_bias_sigma": 0.1191}, {"name": "pgv", "value": 18.6075, "value_rock": 13.9768, "value_soil": 31.5686, "units": "cm/s", "ln_tau": 0.3183, "ln_phi": 0.5155, "ln_sigma": 0.6058, "ln_sigma_rock": 0.6081, "ln_sigma_soil": 0.5591, "ln_bias": 0.161, "ln_bias_sigma": 0.0912}, {"name": "sa(1.0)", "value": 17.6446, "value_rock": 11.7746, "value_soil": 38.9512, "units": "%g", "ln_tau": 0.3376, "ln_phi": 0.6278, "ln_sigma": 0.7128, "ln_sigma_rock": 0.7146, "ln_sigma_soil": 0.667, "ln_bias": 0.3135, "ln_bias_sigma": 0.11}, {"name": "pga", "value": 21.6383, "value_rock": 18.7726, "value_soil": 24.1942, "units": "%g", "ln_tau": 0.3144, "ln_phi": 0.5007, "ln_sigma": 0.5912, "ln_sigma_rock": 0.605, "ln_sigma_soil": 0.5031, "ln_bias": 0.3028, "ln_bias_sigma": 0.0831}, {"name": "mmi", "value": 6.5962, "value_rock": 6.2035, "value_soil": 7.3216, "units": "intensity", "tau": 0.4368, "phi": 0.9473, "sigma": 1.0431, "sigma_rock": 1.0456, "sigma_soil": 0.9928, "bias": 0.3917, "bias_sigma": 0.1404}], "mmi_from_pgm": [{"name": "sa(0.3)", "value": 6.28, "sigma": 0.82, "flag": "0"}, {"name": "sa(3.0)", "value": 6.18, "sigma": 0.89, "flag": "0"}, {"name": "pgv", "value": 5.94, "sigma": 0.63, "flag": "0"}, {"name": "sa(1.0)", "value": 5.38, "sigma": 0.75, "flag": "0"}, {"name": "pga", "value": 6.56, "sigma": 0.66, "flag": "0"}], "distance_stddev": 0.0, "distances": {"repi": 39.864, "rhypo": 43.822, "rjb": 19.021, "rjb_var": 0.0, "